STARLINK-30593
1 58112U 23161R   25352.52631139  .00000568  00000+0  31310-4 0  9997
2 58112  53.1597 182.6323 0001538  91.5798 268.5379 15.30191866121992